NORAD_CAT_ID,OBJECT_NAME,OBJECT_TYPE,EPOCH,MEAN_MOTION,ECCENTRICITY,INCLINATION,RA_OF_ASC_NODE,ARG_OF_PERICENTER,MEAN_ANOMALY,BSTAR,MEAN_MOTION_DOT,MEAN_MOTION_DDOT,TLE_LINE0,TLE_LINE1,TLE_LINE2,SEMIMAJOR_AXIS,PERIOD,APOGEE,PERIGEE,DECAYED
53742.0,STARLINK-4637,PAYLOAD,2022-11-07 22:00:00,15.08840142,0.0001473,53.2151,330.8342,74.4438,227.93400000000003,0.00099279,0.00015548,0.0,0 STARLINK-4637,1 53742U 22107AU  22311.91667824  .00015548  00000-0  99279-3 0  9997,2 53742  53.2151 330.8342 0001473  74.4438 227.9340 15.08840142  1302,6917.88,95.438,540.764,538.726,0.0
53742.0,STARLINK-4637,PAYLOAD,2022-11-08 14:00:01,15.08891954,0.0001472,53.2151,327.8425,64.2111,261.423,-0.0014254,-0.00022934,0.0,0 STARLINK-4637,1 53742U 22107AU  22312.58334491 -.00022934  00000-0 -14254-2 0  9990,2 53742  53.2151 327.8425 0001472  64.2111 261.4230 15.08891954 10065,6917.722,95.434,540.605,538.568,0.0
53742.0,STARLINK-4637,PAYLOAD,2022-11-08 22:00:00,15.08856139,0.0001315999999999,53.2154,326.3442,72.9367,264.3516,0.00018332,2.632e-05,0.0,0 STARLINK-4637,1 53742U 22107AU  22312.91667824  .00002632  00000-0  18332-3 0  9999,2 53742  53.2154 326.3442 0001316  72.9367 264.3516 15.08856139  1309,6917.831,95.437,540.606,538.786,0.0
53742.0,STARLINK-4637,PAYLOAD,2022-11-09 06:00:00,15.08859615,0.0001622,53.2156,324.8489,70.8664,277.9922,-0.0033438,-0.00053141,0.0,0 STARLINK-4637,1 53742U 22107AU  22313.25001157 -.00053141  00000-0 -33438-2 0  9994,2 53742  53.2156 324.8489 0001622  70.8664 277.9922 15.08859615 10170,6917.82,95.436,540.808,538.563,0.0
53742.0,STARLINK-4637,PAYLOAD,2022-11-09 14:00:01,15.08833162,0.0001534,53.2154,323.3527,65.3042,295.1448,0.00010164,1.33e-05,0.0,0 STARLINK-4637,1 53742U 22107AU  22313.58334491  .00001330  00000-0  10164-3 0  9993,2 53742  53.2154 323.3527 0001534  65.3042 295.1448 15.08833162  1316,6917.901,95.438,540.827,538.705,0.0
53742.0,STARLINK-4637,PAYLOAD,2022-11-09 22:00:01,15.08798979,0.0001368,53.2157,321.8546,74.9279,297.1798,0.0020969,0.00033204,0.0,0 STARLINK-4637,1 53742U 22107AU  22313.91668981  .00033204  00000-0  20969-2 0  9992,2 53742  53.2157 321.8546 0001368  74.9279 297.1798 15.08798979 10277,6918.005999999999,95.44,540.817,538.924,0.0
53742.0,STARLINK-4637,PAYLOAD,2022-11-10 14:00:01,15.08805494,0.0001332,53.2156,318.8632,62.6538,332.5019,0.00012377,1.681e-05,0.0,0 STARLINK-4637,1 53742U 22107AU  22314.58334491  .00001681  00000-0  12377-3 0  9991,2 53742  53.2156 318.8632 0001332  62.6538 332.5019 15.08805494  1306,6917.986,95.44,540.7719999999998,538.929,0.0
53742.0,STARLINK-4637,PAYLOAD,2022-11-10 16:00:00,15.08816846,0.0001309,53.2157,318.4887,66.5369,61.5038,-0.0012579,-0.00020239,0.0,0 STARLINK-4637,1 53742U 22107AU  22314.66667824 -.00020239  00000-0 -12579-2 0  9994,2 53742  53.2157 318.4887 0001309  66.5369  61.5038 15.08816846 10385,6917.951,95.439,540.722,538.911,0.0
53742.0,STARLINK-4637,PAYLOAD,2022-11-10 22:00:00,15.08787252,0.0001235,53.2157,317.3654,74.8119,331.906,0.0037807,0.0006031,0.0,0 STARLINK-4637,1 53742U 22107AU  22314.91667824  .00060310  00000-0  37807-2 0  9995,2 53742  53.2157 317.3654 0001235  74.8119 331.9060 15.08787252  1307,6918.042,95.441,540.761,539.052,0.0
53742.0,STARLINK-4637,PAYLOAD,2022-11-11 08:00:01,15.08819082,0.0001377,53.2158,315.4968,66.4698,84.7011,0.00078793,0.00012267,0.0,0 STARLINK-4637,1 53742U 22107AU  22315.33334491  .00012267  00000-0  78793-3 0  9991,2 53742  53.2158 315.4968 0001377  66.4698  84.7011 15.08819082 10486,6917.944,95.439,540.762,538.857,0.0
53742.0,STARLINK-4637,PAYLOAD,2022-11-11 14:00:01,15.08841296,0.0001339,53.2155,314.374,65.21600000000001,4.6328,-0.00018682,-3.26e-05,0.0,0 STARLINK-4637,1 53742U 22107AU  22315.58334491 -.00003260  00000-0 -18682-3 0  9994,2 53742  53.2155 314.3740 0001339  65.2160   4.6328 15.08841296  1303,6917.876,95.437,540.668,538.815,0.0
53742.0,STARLINK-4637,PAYLOAD,2022-11-11 22:00:00,15.08826368,0.0001267,53.2155,312.8762,77.1685,4.2836,0.0036586,0.00058399,0.0,0 STARLINK-4637,1 53742U 22107AU  22315.91667824  .00058399  00000-0  36586-2 0  9993,2 53742  53.2155 312.8762 0001267  77.1685   4.2836 15.08826368  1307,6917.922,95.438,540.664,538.911,0.0
53742.0,STARLINK-4637,PAYLOAD,2022-11-12 08:00:01,15.08859878,0.0001435,53.2156,311.0077,68.8656,117.1002,0.0010600999999999,0.00016633,0.0,0 STARLINK-4637,1 53742U 22107AU  22316.33334491  .00016633  00000-0  10601-2 0  9996,2 53742  53.2156 311.0077 0001435  68.8656 117.1002 15.08859878 10637,6917.82,95.436,540.677,538.692,0.0
53742.0,STARLINK-4637,PAYLOAD,2022-11-12 14:00:01,15.0889054,0.0001424,53.2152,309.8847,68.9704,35.7095,-0.0034865,-0.00055425,0.0,0 STARLINK-4637,1 53742U 22107AU  22316.58334491 -.00055425  00000-0 -34865-2 0  9995,2 53742  53.2152 309.8847 0001424  68.9704  35.7095 15.08890540  1308,6917.726,95.434,540.576,538.606,0.0
53742.0,STARLINK-4637,PAYLOAD,2022-11-12 22:00:00,15.08849595,0.0001371,53.2152,308.3869,79.5435,36.77,-0.00025481,-4.342e-05,0.0,0 STARLINK-4637,1 53742U 22107AU  22316.91667824 -.00004342  00000-0 -25481-3 0  9998,2 53742  53.2152 308.3869 0001371  79.5435  36.7700 15.08849595 10720,6917.851,95.437,540.664,538.768,0.0
53742.0,STARLINK-4637,PAYLOAD,2022-11-13 14:00:01,15.08834447,0.0001284999999999,53.2149,305.3954,67.8598,71.6331,-0.0007817999999999,-0.00012707,0.0,0 STARLINK-4637,1 53742U 22107AU  22317.58334491 -.00012707  00000-0 -78180-3 0  9991,2 53742  53.2149 305.3954 0001285  67.8598  71.6331 15.08834447 10821,6917.897,95.438,540.651,538.873,0.0
53742.0,STARLINK-4637,PAYLOAD,2022-11-13 22:00:00,15.08820764,0.000128,53.2151,303.8978,78.3475,72.7305,0.0027961,0.00044469,0.0,0 STARLINK-4637,1 53742U 22107AU  22317.91667824  .00044469  00000-0  27961-2 0  9995,2 53742  53.2151 303.8978 0001280  78.3475  72.7305 15.08820764  1302,6917.939,95.439,540.69,538.919,0.0
53742.0,STARLINK-4637,PAYLOAD,2022-11-14 14:00:01,15.08849672,0.0001448,53.2152,300.9069,69.2344,105.039,-0.0015295,-0.00024554,0.0,0 STARLINK-4637,1 53742U 22107AU  22318.58334491 -.00024554  00000-0 -15295-2 0  9992,2 53742  53.2152 300.9069 0001448  69.2344 105.0390 15.08849672 10978,6917.851,95.437,540.7180000000002,538.714,0.0
53742.0,STARLINK-4637,PAYLOAD,2022-11-14 22:00:00,15.08854702,0.0001413,53.2161,299.4113,77.2597,108.605,-0.001862,-0.00029811,0.0,0 STARLINK-4637,1 53742U 22107AU  22318.91667824 -.00029811  00000-0 -18620-2 0  9994,2 53742  53.2161 299.4113 0001413  77.2597 108.6050 15.08854702  1300,6917.835,95.437,540.678,538.7230000000002,0.0
53742.0,STARLINK-4637,PAYLOAD,2022-11-15 14:00:01,15.08854318,0.0001619,53.2152,296.4169,71.4007,137.6386,-0.0017697,-0.00028354,0.0,0 STARLINK-4637,1 53742U 22107AU  22319.58334491 -.00028354  00000-0 -17697-2 0  9993,2 53742  53.2152 296.4169 0001619  71.4007 137.6386 15.08854318  1305,6917.837,95.437,540.822,538.582,0.0
53742.0,STARLINK-4637,PAYLOAD,2022-11-15 16:00:00,15.08853334,0.0001582,53.2154,296.0424,73.6828,228.2574,-0.0020062,-0.00032087,0.0,0 STARLINK-4637,1 53742U 22107AU  22319.66667824 -.00032087  00000-0 -20062-2 0  9999,2 53742  53.2154 296.0424 0001582  73.6828 228.2574 15.08853334 11136,6917.84,95.437,540.799,538.61,0.0
53742.0,STARLINK-4637,PAYLOAD,2022-11-15 22:00:00,15.08833746,0.0001581,53.2154,294.9195,78.4147,142.2264,0.00018765,2.699e-05,0.0,0 STARLINK-4637,1 53742U 22107AU  22319.91667824  .00002699  00000-0  18765-3 0  9999,2 53742  53.2154 294.9195 0001581  78.4147 142.2264 15.08833746  1308,6917.9,95.438,540.8580000000002,538.6709999999998,0.0
53742.0,STARLINK-4637,PAYLOAD,2022-11-16 14:00:01,15.08861105,0.000165,53.2162,291.9311,69.7968,174.0753,-0.0018867,-0.00030207,0.0,0 STARLINK-4637,1 53742U 22107AU  22320.58335648 -.00030207  00000-0 -18867-2 0  9990,2 53742  53.2162 291.9311 0001650  69.7968 174.0753 15.08861105 11278,6917.816,95.436,540.822,538.539,0.0
53742.0,STARLINK-4637,PAYLOAD,2022-11-16 22:00:08,15.08838828,0.0001761,53.2169,290.4353,76.405,179.4527,-0.00016214,-2.868e-05,0.0,0 STARLINK-4637,1 53742U 22107AU  22320.91675926 -.00002868  00000-0 -16214-3 0  9990,2 53742  53.2169 290.4353 0001761  76.4050 179.4527 15.08838828  1302,6917.884,95.438,540.967,538.531,0.0
53742.0,STARLINK-4637,PAYLOAD,2022-11-17 06:00:00,15.088277,0.0001588,53.2158,288.9368,68.8347,198.199,0.0013626,0.00021457,0.0,0 STARLINK-4637,1 53742U 22107AU  22321.25001157  .00021457  00000-0  13626-2 0  9993,2 53742  53.2158 288.9368 0001588  68.8347 198.1990 15.08827700 11376,6917.918000000002,95.438,540.882,538.684,0.0
53742.0,STARLINK-4637,PAYLOAD,2022-11-17 14:00:01,15.08869939,0.0001414,53.2155,287.4383,70.6575,207.95,-0.0039921,-0.00063315,0.0,0 STARLINK-4637,1 53742U 22107AU  22321.58334491 -.00063315  00000-0 -39921-2 0  9996,2 53742  53.2155 287.4383 0001414  70.6575 207.9500 15.08869939  1304,6917.7890000000025,95.436,540.632,538.6759999999998,0.0
53742.0,STARLINK-4637,PAYLOAD,2022-11-17 22:00:00,15.08827527,0.0001355,53.2157,285.9411,78.074,212.1365,0.0012663,0.00019916,0.0,0 STARLINK-4637,1 53742U 22107AU  22321.91667824  .00019916  00000-0  12663-2 0  9992,2 53742  53.2157 285.9411 0001355  78.0740 212.1365 15.08827527  1305,6917.919,95.438,540.721,538.846,0.0
53742.0,STARLINK-4637,PAYLOAD,2022-11-18 14:00:01,15.08867573,0.0001312,53.2153,282.9489,71.0853,242.2999,-0.0029226,-0.00046535,0.0,0 STARLINK-4637,1 53742U 22107AU  22322.58334491 -.00046535  00000-0 -29226-2 0  9999,2 53742  53.2153 282.9489 0001312  71.0853 242.2999 15.08867573  1306,6917.795999999999,95.436,540.569,538.753,0.0
53742.0,STARLINK-4637,PAYLOAD,2022-11-18 22:00:00,15.08837452,0.0001262999999999,53.2155,281.4519,78.7877,246.2052,0.00036177,5.474e-05,0.0,0 STARLINK-4637,1 53742U 22107AU  22322.91667824  .00005474  00000-0  36177-3 0  9994,2 53742  53.2155 281.4519 0001263  78.7877 246.2052 15.08837452 11624,6917.888000000001,95.438,540.627,538.879,0.0
